{"type": "FeatureCollection", "features": [{"type": "Feature", "properties": {"norad_id": 25590, "name": "COSMOS 2361", "group": "musson", "lat": -51.5346216058276, "lon": 169.36737261556104, "alt_km": 974.0096195837514, "timestamp": "2025-12-17T17:50:19.520499+00:00", "meta": {"OBJECT_NAME": "COSMOS 2361", "OBJECT_ID": "1998-076A", "EPOCH": "2025-12-17T08:30:57.204000", "MEAN_MOTION": 13.73218096, "ECCENTRICITY": 0.00300983, "INCLINATION": 82.934, "RA_OF_ASC_NODE": 340.6728, "ARG_OF_PERICENTER": 252.226, "MEAN_ANOMALY": 220.6318, "EPHEMERIS_TYPE": 0, "CLASSIFICATION_TYPE": "U", "NORAD_CAT_ID": 25590, "ELEMENT_SET_NO": 999, "REV_AT_EPOCH": 35174, "BSTAR": 6.8627038e-05, "MEAN_MOTION_DOT": 7.9e-07, "MEAN_MOTION_DDOT": 0}, "tle": {"line1": "1 25590U 98076A   25351.35482875  .00000079  00000+0  68627-4 0  9997", "line2": "2 25590  82.9340 340.6728 0030098 252.2260 220.6318 13.73218096351740"}}, "geometry": {"type": "Point", "coordinates": [169.36737261556104, -51.5346216058276]}}, {"type": "Feature", "properties": {"norad_id": 26818, "name": "COSMOS 2378", "group": "musson", "lat": -38.079553283621756, "lon": -9.567507437590232, "alt_km": 1006.8194277559269, "timestamp": "2025-12-17T17:50:19.520521+00:00", "meta": {"OBJECT_NAME": "COSMOS 2378", "OBJECT_ID": "2001-023A", "EPOCH": "2025-12-17T07:35:41.913312", "MEAN_MOTION": 13.74142403, "ECCENTRICITY": 0.00326836, "INCLINATION": 82.9272, "RA_OF_ASC_NODE": 356.3311, "ARG_OF_PERICENTER": 191.9853, "MEAN_ANOMALY": 179.1289, "EPHEMERIS_TYPE": 0, "CLASSIFICATION_TYPE": "U", "NORAD_CAT_ID": 26818, "ELEMENT_SET_NO": 999, "REV_AT_EPOCH": 22986, "BSTAR": 5.3605134e-05, "MEAN_MOTION_DOT": 6.6e-07, "MEAN_MOTION_DDOT": 0}, "tle": {"line1": "1 26818U 01023A   25351.31645733  .00000066  00000+0  53605-4 0  9993", "line2": "2 26818  82.9272 356.3311 0032683 191.9853 179.1289 13.74142403229860"}}, "geometry": {"type": "Point", "coordinates": [-9.567507437590232, -38.079553283621756]}}, {"type": "Feature", "properties": {"norad_id": 27436, "name": "COSMOS 2389", "group": "musson", "lat": -6.93284362797718, "lon": 124.14275873432791, "alt_km": 1011.4890890375236, "timestamp": "2025-12-17T17:50:19.520534+00:00", "meta": {"OBJECT_NAME": "COSMOS 2389", "OBJECT_ID": "2002-026A", "EPOCH": "2025-12-17T07:16:42.364704", "MEAN_MOTION": 13.75155192, "ECCENTRICITY": 0.00474847, "INCLINATION": 82.9506, "RA_OF_ASC_NODE": 303.6063, "ARG_OF_PERICENTER": 48.3429, "MEAN_ANOMALY": 121.0907, "EPHEMERIS_TYPE": 0, "CLASSIFICATION_TYPE": "U", "NORAD_CAT_ID": 27436, "ELEMENT_SET_NO": 999, "REV_AT_EPOCH": 18211, "BSTAR": 4.2952547e-05, "MEAN_MOTION_DOT": 5.7e-07, "MEAN_MOTION_DDOT": 0}, "tle": {"line1": "1 27436U 02026A   25351.30326811  .00000057  00000+0  42953-4 0  9990", "line2": "2 27436  82.9506 303.6063 0047484  48.3429 121.0907 13.75155192182114"}}, "geometry": {"type": "Point", "coordinates": [124.14275873432791, -6.93284362797718]}}, {"type": "Feature", "properties": {"norad_id": 27818, "name": "COSMOS 2398", "group": "musson", "lat": 82.91138821585375, "lon": -6.527580622722572, "alt_km": 959.7434301454841, "timestamp": "2025-12-17T17:50:19.520545+00:00", "meta": {"OBJECT_NAME": "COSMOS 2398", "OBJECT_ID": "2003-023A", "EPOCH": "2025-12-17T07:28:07.757760", "MEAN_MOTION": 13.72386161, "ECCENTRICITY": 0.00327048, "INCLINATION": 82.9484, "RA_OF_ASC_NODE": 269.3296, "ARG_OF_PERICENTER": 99.5637, "MEAN_ANOMALY": 16.281, "EPHEMERIS_TYPE": 0, "CLASSIFICATION_TYPE": "U", "NORAD_CAT_ID": 27818, "ELEMENT_SET_NO": 999, "REV_AT_EPOCH": 12879, "BSTAR": 3.662827e-05, "MEAN_MOTION_DOT": 4.9e-07, "MEAN_MOTION_DDOT": 0}, "tle": {"line1": "1 27818U 03023A   25351.31120090  .00000049  00000+0  36628-4 0  9997", "line2": "2 27818  82.9484 269.3296 0032704  99.5637  16.2810 13.72386161128798"}}, "geometry": {"type": "Point", "coordinates": [-6.527580622722572, 82.91138821585375]}}, {"type": "Feature", "properties": {"norad_id": 28380, "name": "COSMOS 2407", "group": "musson", "lat": -4.6473738703913074, "lon": -151.38744988602858, "alt_km": 959.8172414363335, "timestamp": "2025-12-17T17:50:19.520556+00:00", "meta": {"OBJECT_NAME": "COSMOS 2407", "OBJECT_ID": "2004-028A", "EPOCH": "2025-12-17T08:13:53.408064", "MEAN_MOTION": 13.76314225, "ECCENTRICITY": 0.00401449, "INCLINATION": 82.9601, "RA_OF_ASC_NODE": 209.4845, "ARG_OF_PERICENTER": 42.3249, "MEAN_ANOMALY": 131.1674, "EPHEMERIS_TYPE": 0, "CLASSIFICATION_TYPE": "U", "NORAD_CAT_ID": 28380, "ELEMENT_SET_NO": 999, "REV_AT_EPOCH": 7486, "BSTAR": 7.1950589e-05, "MEAN_MOTION_DOT": 8.6e-07, "MEAN_MOTION_DDOT": 0}, "tle": {"line1": "1 28380U 04028A   25351.34297926  .00000086  00000+0  71951-4 0  9993", "line2": "2 28380  82.9601 209.4845 0040144  42.3249 131.1674 13.76314225 74860"}}, "geometry": {"type": "Point", "coordinates": [-151.38744988602858, -4.6473738703913074]}}, {"type": "Feature", "properties": {"norad_id": 28521, "name": "COSMOS 2414", "group": "musson", "lat": 71.0981402717946, "lon": -20.31324870324555, "alt_km": 900.5353337132301, "timestamp": "2025-12-17T17:50:19.520567+00:00", "meta": {"OBJECT_NAME": "COSMOS 2414", "OBJECT_ID": "2005-002A", "EPOCH": "2025-12-17T01:45:05.719104", "MEAN_MOTION": 13.87903569, "ECCENTRICITY": 0.00411226, "INCLINATION": 82.9489, "RA_OF_ASC_NODE": 181.3832, "ARG_OF_PERICENTER": 127.5945, "MEAN_ANOMALY": 232.8964, "EPHEMERIS_TYPE": 0, "CLASSIFICATION_TYPE": "U", "NORAD_CAT_ID": 28521, "ELEMENT_SET_NO": 999, "REV_AT_EPOCH": 5855, "BSTAR": 6.5073417e-05, "MEAN_MOTION_DOT": 9.4e-07, "MEAN_MOTION_DDOT": 0}, "tle": {"line1": "1 28521U 05002A   25351.07298286  .00000094  00000+0  65073-4 0  9990", "line2": "2 28521  82.9489 181.3832 0041122 127.5945 232.8964 13.87903569 58557"}}, "geometry": {"type": "Point", "coordinates": [-20.31324870324555, 71.0981402717946]}}, {"type": "Feature", "properties": {"norad_id": 32052, "name": "COSMOS 2429", "group": "musson", "lat": 11.971737169464705, "lon": -18.88296486154636, "alt_km": 954.2750764223138, "timestamp": "2025-12-17T17:50:19.520577+00:00", "meta": {"OBJECT_NAME": "COSMOS 2429", "OBJECT_ID": "2007-038A", "EPOCH": "2025-12-17T07:18:11.663424", "MEAN_MOTION": 13.75149867, "ECCENTRICITY": 0.00389971, "INCLINATION": 82.9804, "RA_OF_ASC_NODE": 339.9435, "ARG_OF_PERICENTER": 25.3705, "MEAN_ANOMALY": 334.9355, "EPHEMERIS_TYPE": 0, "CLASSIFICATION_TYPE": "U", "NORAD_CAT_ID": 32052, "ELEMENT_SET_NO": 999, "REV_AT_EPOCH": 91665, "BSTAR": 5.8320523e-05, "MEAN_MOTION_DOT": 7.1e-07, "MEAN_MOTION_DDOT": 0}, "tle": {"line1": "1 32052U 07038A   25351.30430166  .00000071  00000+0  58321-4 0  9999", "line2": "2 32052  82.9804 339.9435 0038997  25.3705 334.9355 13.75149867916659"}}, "geometry": {"type": "Point", "coordinates": [-18.88296486154636, 11.971737169464705]}}, {"type": "Feature", "properties": {"norad_id": 35635, "name": "COSMOS 2454", "group": "musson", "lat": -14.504543198727475, "lon": -13.315093633438169, "alt_km": 943.8561653326751, "timestamp": "2025-12-17T17:50:19.520588+00:00", "meta": {"OBJECT_NAME": "COSMOS 2454", "OBJECT_ID": "2009-039A", "EPOCH": "2025-12-17T00:10:12.122400", "MEAN_MOTION": 13.89929157, "ECCENTRICITY": 0.002036, "INCLINATION": 82.9553, "RA_OF_ASC_NODE": 165.4099, "ARG_OF_PERICENTER": 62.3377, "MEAN_ANOMALY": 50.3631, "EPHEMERIS_TYPE": 0, "CLASSIFICATION_TYPE": "U", "NORAD_CAT_ID": 35635, "ELEMENT_SET_NO": 999, "REV_AT_EPOCH": 83209, "BSTAR": 5.4153071e-05, "MEAN_MOTION_DOT": 8.3e-07, "MEAN_MOTION_DDOT": 0}, "tle": {"line1": "1 35635U 09039A   25351.00708475  .00000083  00000+0  54153-4 0  9992", "line2": "2 35635  82.9553 165.4099 0020360  62.3377  50.3631 13.89929157832093"}}, "geometry": {"type": "Point", "coordinates": [-13.315093633438169, -14.504543198727475]}}, {"type": "Feature", "properties": {"norad_id": 36519, "name": "COSMOS 2463", "group": "musson", "lat": -81.75112852949637, "lon": -98.50756363563445, "alt_km": 975.6747649315921, "timestamp": "2025-12-17T17:50:19.520599+00:00", "meta": {"OBJECT_NAME": "COSMOS 2463", "OBJECT_ID": "2010-017A", "EPOCH": "2025-12-17T07:50:49.275744", "MEAN_MOTION": 13.71649548, "ECCENTRICITY": 0.00347319, "INCLINATION": 82.9609, "RA_OF_ASC_NODE": 23.3416, "ARG_OF_PERICENTER": 274.8255, "MEAN_ANOMALY": 96.2972, "EPHEMERIS_TYPE": 0, "CLASSIFICATION_TYPE": "U", "NORAD_CAT_ID": 36519, "ELEMENT_SET_NO": 999, "REV_AT_EPOCH": 78300, "BSTAR": 6.2012018e-05, "MEAN_MOTION_DOT": 7.1e-07, "MEAN_MOTION_DDOT": 0}, "tle": {"line1": "1 36519U 10017A   25351.32695921  .00000071  00000+0  62012-4 0  9998", "line2": "2 36519  82.9609  23.3416 0034731 274.8255  96.2972 13.71649548783001"}}, "geometry": {"type": "Point", "coordinates": [-98.50756363563445, -81.75112852949637]}}]}